GLOBALSTAR M075         
1 37192U 10054E   24177.20587853 -.00000114  00000+0 -57186-4 0  9999
2 37192  51.9918 188.4661 0000095 153.0145 285.2932 12.62261248631290
GLOBALSTAR M073         
1 37193U 10054F   24176.27418656 -.00000102  00000+0  12514-4 0  9992
2 37193  52.0057 104.8492 0000482  27.0501 133.9393 12.62266295632633
GLOBALSTAR M083         
1 37739U 11033A   24176.98772019 -.00000090  00000+0  75877-4 0  9997
2 37739  51.9873  51.8947 0000808  85.8444  21.1352 12.62270544602103
GLOBALSTAR M088         
1 37740U 11033B   24176.72337052 -.00000093  00000+0  62275-4 0  9996
2 37740  51.9751 318.4934 0000865 123.4216 341.5588 12.62264479597256
GLOBALSTAR M089         
1 37744U 11033F   24176.48393425 -.00000099  00000+0  29384-4 0  9999
2 37744  51.9901 190.3575 0000286 315.7073 198.4970 12.62265373599518
